[{"OBJECT_NAME":"BSAT-3B","OBJECT_ID":"2010-056B","EPOCH":"2026-03-15T00:26:06.458784","MEAN_MOTION":1.00272863,"ECCENTRICITY":0.00013555,"INCLINATION":0.0602,"RA_OF_ASC_NODE":237.0479,"ARG_OF_PERICENTER":45.8598,"MEAN_ANOMALY":6.0862,"EPHEMERIS_TYPE":0,"CLASSIFICATION_TYPE":"U","NORAD_CAT_ID":37207,"ELEMENT_SET_NO":999,"REV_AT_EPOCH":5115,"BSTAR":0,"MEAN_MOTION_DOT":-3.51e-6,"MEAN_MOTION_DDOT":0},{"OBJECT_NAME":"BEIDOU-2 G4","OBJECT_ID":"2010-057A","EPOCH":"2026-03-15T05:53:19.491072","MEAN_MOTION":1.002725,"ECCENTRICITY":0.00080935,"INCLINATION":3.4121,"RA_OF_ASC_NODE":69.4786,"ARG_OF_PERICENTER":213.4177,"MEAN_ANOMALY":138.3151,"EPHEMERIS_TYPE":0,"CLASSIFICATION_TYPE":"U","NORAD_CAT_ID":37210,"ELEMENT_SET_NO":999,"REV_AT_EPOCH":5634,"BSTAR":0,"MEAN_MOTION_DOT":-1.11e-6,"MEAN_MOTION_DDOT":0},{"OBJECT_NAME":"MERIDIAN 3","OBJECT_ID":"2010-058A","EPOCH":"2026-03-12T02:58:48.484128","MEAN_MOTION":2.00598959,"ECCENTRICITY":0.67796956,"INCLINATION":63.4569,"RA_OF_ASC_NODE":102.2583,"ARG_OF_PERICENTER":261.232,"MEAN_ANOMALY":22.6885,"EPHEMERIS_TYPE":0,"CLASSIFICATION_TYPE":"U","NORAD_CAT_ID":37212,"ELEMENT_SET_NO":999,"REV_AT_EPOCH":11251,"BSTAR":0,"MEAN_MOTION_DOT":-7.8e-7,"MEAN_MOTION_DDOT":0},{"OBJECT_NAME":"SKYTERRA 1","OBJECT_ID":"2010-061A","EPOCH":"2026-03-15T01:08:32.390304","MEAN_MOTION":1.00272422,"ECCENTRICITY":0.00015864,"INCLINATION":4.9238,"RA_OF_ASC_NODE":50.8967,"ARG_OF_PERICENTER":329.1588,"MEAN_ANOMALY":68.4206,"EPHEMERIS_TYPE":0,"CLASSIFICATION_TYPE":"U","NORAD_CAT_ID":37218,"ELEMENT_SET_NO":999,"REV_AT_EPOCH":5625,"BSTAR":0,"MEAN_MOTION_DOT":-1.16e-6,"MEAN_MOTION_DDOT":0},{"OBJECT_NAME":"DELTA 4 R/B","OBJECT_ID":"2010-063B","EPOCH":"2026-03-14T19:39:34.829568","MEAN_MOTION":1.04038248,"ECCENTRICITY":0.02102723,"INCLINATION":9.1781,"RA_OF_ASC_NODE":83.0947,"ARG_OF_PERICENTER":63.2966,"MEAN_ANOMALY":298.9878,"EPHEMERIS_TYPE":0,"CLASSIFICATION_TYPE":"U","NORAD_CAT_ID":37233,"ELEMENT_SET_NO":999,"REV_AT_EPOCH":2532,"BSTAR":0,"MEAN_MOTION_DOT":-4.0e-7,"MEAN_MOTION_DDOT":0},{"OBJECT_NAME":"HYLAS 1","OBJECT_ID":"2010-065A","EPOCH":"2026-03-15T03:13:38.540640","MEAN_MOTION":1.00613558,"ECCENTRICITY":0.00081526,"INCLINATION":5.4032,"RA_OF_ASC_NODE":74.1655,"ARG_OF_PERICENTER":347.7481,"MEAN_ANOMALY":173.0106,"EPHEMERIS_TYPE":0,"CLASSIFICATION_TYPE":"U","NORAD_CAT_ID":37237,"ELEMENT_SET_NO":999,"REV_AT_EPOCH":594,"BSTAR":0,"MEAN_MOTION_DOT":1.28e-6,"MEAN_MOTION_DDOT":0},{"OBJECT_NAME":"INTELSAT 17 (IS-17)","OBJECT_ID":"2010-065B","EPOCH":"2026-03-15T02:19:38.690976","MEAN_MOTION":1.00271955,"ECCENTRICITY":0.00025513,"INCLINATION":0.0139,"RA_OF_ASC_NODE":172.4383,"ARG_OF_PERICENTER":198.4742,"MEAN_ANOMALY":262.6854,"EPHEMERIS_TYPE":0,"CLASSIFICATION_TYPE":"U","NORAD_CAT_ID":37238,"ELEMENT_SET_NO":999,"REV_AT_EPOCH":5230,"BSTAR":0,"MEAN_MOTION_DOT":-2.0e-8,"MEAN_MOTION_DDOT":0},{"OBJECT_NAME":"BEIDOU-2 IGSO-2","OBJECT_ID":"2010-068A","EPOCH":"2026-03-10T11:51:55.860192","MEAN_MOTION":1.00257833,"ECCENTRICITY":0.00474909,"INCLINATION":47.7215,"RA_OF_ASC_NODE":273.0501,"ARG_OF_PERICENTER":213.2827,"MEAN_ANOMALY":326.5355,"EPHEMERIS_TYPE":0,"CLASSIFICATION_TYPE":"U","NORAD_CAT_ID":37256,"ELEMENT_SET_NO":999,"REV_AT_EPOCH":5580,"BSTAR":0,"MEAN_MOTION_DOT":-1.57e-6,"MEAN_MOTION_DDOT":0},{"OBJECT_NAME":"EUTELSAT KA-SAT 9A","OBJECT_ID":"2010-069A","EPOCH":"2026-03-15T03:22:42.024288","MEAN_MOTION":1.00271329,"ECCENTRICITY":0.00026867,"INCLINATION":0.0568,"RA_OF_ASC_NODE":357.1903,"ARG_OF_PERICENTER":149.3164,"MEAN_ANOMALY":85.894,"EPHEMERIS_TYPE":0,"CLASSIFICATION_TYPE":"U","NORAD_CAT_ID":37258,"ELEMENT_SET_NO":999,"REV_AT_EPOCH":4306,"BSTAR":0,"MEAN_MOTION_DOT":6.1e-7,"MEAN_MOTION_DDOT":0},{"OBJECT_NAME":"HISPASAT 30W-5","OBJECT_ID":"2010-070A","EPOCH":"2026-03-15T05:57:58.493952","MEAN_MOTION":1.00271125,"ECCENTRICITY":0.00035768,"INCLINATION":0.0331,"RA_OF_ASC_NODE":119.3487,"ARG_OF_PERICENTER":260.1918,"MEAN_ANOMALY":212.8064,"EPHEMERIS_TYPE":0,"CLASSIFICATION_TYPE":"U","NORAD_CAT_ID":37264,"ELEMENT_SET_NO":999,"REV_AT_EPOCH":5224,"BSTAR":0,"MEAN_MOTION_DOT":-2.17e-6,"MEAN_MOTION_DDOT":0},{"OBJECT_NAME":"KOREASAT 6","OBJECT_ID":"2010-070B","EPOCH":"2026-03-15T04:05:45.394656","MEAN_MOTION":1.0027004,"ECCENTRICITY":0.00020533,"INCLINATION":0.0275,"RA_OF_ASC_NODE":152.3445,"ARG_OF_PERICENTER":198.6569,"MEAN_ANOMALY":43.1145,"EPHEMERIS_TYPE":0,"CLASSIFICATION_TYPE":"U","NORAD_CAT_ID":37265,"ELEMENT_SET_NO":999,"REV_AT_EPOCH":5582,"BSTAR":0,"MEAN_MOTION_DOT":0,"MEAN_MOTION_DDOT":0},{"OBJECT_NAME":"ELEKTRO-L 1 (GOMS 2)","OBJECT_ID":"2011-001A","EPOCH":"2026-03-14T21:50:58.835616","MEAN_MOTION":1.00170998,"ECCENTRICITY":0.00035764,"INCLINATION":9.4718,"RA_OF_ASC_NODE":55.4463,"ARG_OF_PERICENTER":14.5573,"MEAN_ANOMALY":356.6937,"EPHEMERIS_TYPE":0,"CLASSIFICATION_TYPE":"U","NORAD_CAT_ID":37344,"ELEMENT_SET_NO":999,"REV_AT_EPOCH":5554,"BSTAR":0,"MEAN_MOTION_DOT":-2.46e-6,"MEAN_MOTION_DDOT":0},{"OBJECT_NAME":"FREGAT R/B","OBJECT_ID":"2011-001B","EPOCH":"2026-03-15T03:20:04.775424","MEAN_MOTION":1.02798427,"ECCENTRICITY":0.01510301,"INCLINATION":10.0614,"RA_OF_ASC_NODE":43.2206,"ARG_OF_PERICENTER":68.5567,"MEAN_ANOMALY":109.0078,"EPHEMERIS_TYPE":0,"CLASSIFICATION_TYPE":"U","NORAD_CAT_ID":37345,"ELEMENT_SET_NO":999,"REV_AT_EPOCH":5943,"BSTAR":0,"MEAN_MOTION_DOT":1.6e-7,"MEAN_MOTION_DDOT":0},{"OBJECT_NAME":"BEIDOU-2 IGSO-3","OBJECT_ID":"2011-013A","EPOCH":"2026-03-14T20:22:21.599040","MEAN_MOTION":1.0029112,"ECCENTRICITY":0.00347746,"INCLINATION":62.285,"RA_OF_ASC_NODE":41.0424,"ARG_OF_PERICENTER":190.0864,"MEAN_ANOMALY":353.6522,"EPHEMERIS_TYPE":0,"CLASSIFICATION_TYPE":"U","NORAD_CAT_ID":37384,"ELEMENT_SET_NO":999,"REV_AT_EPOCH":5471,"BSTAR":0,"MEAN_MOTION_DOT":-1.47e-6,"MEAN_MOTION_DDOT":0},{"OBJECT_NAME":"INTELSAT 28 (IS-28)","OBJECT_ID":"2011-016A","EPOCH":"2026-03-15T06:36:30.937248","MEAN_MOTION":1.00271679,"ECCENTRICITY":0.00045988,"INCLINATION":1.5617,"RA_OF_ASC_NODE":83.8231,"ARG_OF_PERICENTER":273.5847,"MEAN_ANOMALY":242.9014,"EPHEMERIS_TYPE":0,"CLASSIFICATION_TYPE":"U","NORAD_CAT_ID":37392,"ELEMENT_SET_NO":999,"REV_AT_EPOCH":5234,"BSTAR":0,"MEAN_MOTION_DOT":-2.25e-6,"MEAN_MOTION_DDOT":0},{"OBJECT_NAME":"YAHSAT 1A","OBJECT_ID":"2011-016B","EPOCH":"2026-03-15T05:17:45.989952","MEAN_MOTION":1.00270636,"ECCENTRICITY":0.00034732,"INCLINATION":0.0192,"RA_OF_ASC_NODE":174.2956,"ARG_OF_PERICENTER":191.2881,"MEAN_ANOMALY":299.1711,"EPHEMERIS_TYPE":0,"CLASSIFICATION_TYPE":"U","NORAD_CAT_ID":37393,"ELEMENT_SET_NO":999,"REV_AT_EPOCH":4146,"BSTAR":0,"MEAN_MOTION_DOT":1.0e-6,"MEAN_MOTION_DDOT":0},{"OBJECT_NAME":"MERIDIAN 4","OBJECT_ID":"2011-018A","EPOCH":"2026-03-13T10:09:58.538016","MEAN_MOTION":2.01603572,"ECCENTRICITY":0.75058831,"INCLINATION":62.0925,"RA_OF_ASC_NODE":89.2889,"ARG_OF_PERICENTER":264.5577,"MEAN_ANOMALY":14.6941,"EPHEMERIS_TYPE":0,"CLASSIFICATION_TYPE":"U","NORAD_CAT_ID":37398,"ELEMENT_SET_NO":999,"REV_AT_EPOCH":10884,"BSTAR":0.002960095,"MEAN_MOTION_DOT":0.00013805,"MEAN_MOTION_DDOT":0}]
