BSAT-3B                 
1 37207U 10056B   26074.01813031 -.00000351  00000+0  00000+0 0  9995
2 37207   0.0602 237.0479 0001355  45.8598   6.0862  1.00272863 51157
BEIDOU-2 G4             
1 37210U 10057A   26074.24536448 -.00000111  00000+0  00000+0 0  9993
2 37210   3.4121  69.4786 0008093 213.4177 138.3151  1.00272500 56348
MERIDIAN 3              
1 37212U 10058A   26071.12417227 -.00000078  00000+0  00000+0 0  9995
2 37212  63.4569 102.2583 6779695 261.2320  22.6885  2.00598959112514
SKYTERRA 1              
1 37218U 10061A   26074.04759711 -.00000116  00000+0  00000+0 0  9999
2 37218   4.9238  50.8967 0001586 329.1588  68.4206  1.00272422 56254
DELTA 4 R/B             
1 37233U 10063B   26073.81915312 -.00000040  00000+0  00000+0 0  9999
2 37233   9.1781  83.0947 0210272  63.2966 298.9878  1.04038248 25326
HYLAS 1                 
1 37237U 10065A   26074.13447385  .00000128  00000+0  00000+0 0  9997
2 37237   5.4032  74.1655 0008152 347.7481 173.0106  1.00613558  5941
INTELSAT 17 (IS-17)     
1 37238U 10065B   26074.09697559 -.00000002  00000+0  00000+0 0  9995
2 37238   0.0139 172.4383 0002551 198.4742 262.6854  1.00271955 52307
BEIDOU-2 IGSO-2         
1 37256U 10068A   26069.49439653 -.00000157  00000+0  00000+0 0  9996
2 37256  47.7215 273.0501 0047490 213.2827 326.5355  1.00257833 55804
EUTELSAT KA-SAT 9A      
1 37258U 10069A   26074.14076417  .00000061  00000+0  00000+0 0  9995
2 37258   0.0568 357.1903 0002686 149.3164  85.8940  1.00271329 43066
HISPASAT 30W-5          
1 37264U 10070A   26074.24859368 -.00000217  00000+0  00000+0 0  9993
2 37264   0.0331 119.3487 0003576 260.1918 212.8064  1.00271125 52247
KOREASAT 6              
1 37265U 10070B   26074.17066429  .00000000  00000+0  00000+0 0  9993
2 37265   0.0275 152.3445 0002053 198.6569  43.1145  1.00270040 55829
ELEKTRO-L 1 (GOMS 2)    
1 37344U 11001A   26073.91040319 -.00000246  00000+0  00000+0 0  9990
2 37344   9.4718  55.4463 0003576  14.5573 356.6937  1.00170998 55548
FREGAT R/B              
1 37345U 11001B   26074.13894416  .00000016  00000+0  00000+0 0  9995
2 37345  10.0614  43.2206 0151030  68.5567 109.0078  1.02798427 59436
BEIDOU-2 IGSO-3         
1 37384U 11013A   26073.84886110 -.00000147  00000+0  00000+0 0  9996
2 37384  62.2850  41.0424 0034774 190.0864 353.6522  1.00291120 54717
INTELSAT 28 (IS-28)     
1 37392U 11016A   26074.27535807 -.00000225  00000+0  00000+0 0  9997
2 37392   1.5617  83.8231 0004598 273.5847 242.9014  1.00271679 52342
YAHSAT 1A               
1 37393U 11016B   26074.22067118  .00000100  00000+0  00000+0 0  9999
2 37393   0.0192 174.2956 0003473 191.2881 299.1711  1.00270636 41460
MERIDIAN 4              
1 37398U 11018A   26072.42359419  .00013805  00000+0  29601-2 0  9991
2 37398  62.0925  89.2889 7505883 264.5577  14.6941  2.01603572108844
